[{"OBJECT_NAME":"KSM1-A","OBJECT_ID":"2020-081H","EPOCH":"2026-03-09T23:34:08.864256","MEAN_MOTION":15.24261374,"ECCENTRICITY":0.00028414,"INCLINATION":36.8964,"RA_OF_ASC_NODE":312.2974,"ARG_OF_PERICENTER":256.0923,"MEAN_ANOMALY":103.9509,"EPHEMERIS_TYPE":0,"CLASSIFICATION_TYPE":"U","NORAD_CAT_ID":46912,"ELEMENT_SET_NO":999,"REV_AT_EPOCH":29402,"BSTAR":0.00047546467,"MEAN_MOTION_DOT":0.00011801,"MEAN_MOTION_DDOT":0},{"OBJECT_NAME":"TITAN 3C TRANSTAGE DEB","OBJECT_ID":"1965-082EY","EPOCH":"2026-03-09T01:33:52.493760","MEAN_MOTION":15.22433287,"ECCENTRICITY":0.00129834,"INCLINATION":32.0932,"RA_OF_ASC_NODE":327.1819,"ARG_OF_PERICENTER":169.7698,"MEAN_ANOMALY":190.323,"EPHEMERIS_TYPE":0,"CLASSIFICATION_TYPE":"U","NORAD_CAT_ID":1883,"ELEMENT_SET_NO":999,"REV_AT_EPOCH":25002,"BSTAR":0.00039349355,"MEAN_MOTION_DOT":9.436e-5,"MEAN_MOTION_DDOT":0}]
